{
  "type": "FeatureCollection",
  "features": [
    {
      "type": "Feature",
      "properties": {
        "norad_id": 66772,
        "name": "TRANSPORTER-15 DL",
        "group": "last-30-days",
        "lat": -49.37290971990815,
        "lon": -122.61346035769739,
        "alt_km": 518.0159932219103,
        "timestamp": "2025-12-20T11:30:27.105761+00:00",
        "meta_object_name": "TRANSPORTER-15 DL",
        "meta_object_id": "2025-276DL",
        "meta_epoch": "2025-12-19T15:31:19.536096",
        "meta_mean_motion": 15.18627675,
        "meta_eccentricity": 0.0002887,
        "meta_inclination": 97.4448,
        "meta_ra_of_asc_node": 65.3337,
        "meta_arg_of_pericenter": 108.2208,
        "meta_mean_anomaly": 251.934,
        "meta_ephemeris_type": 0,
        "meta_classification_type": "U",
        "meta_norad_cat_id": 66772,
        "meta_element_set_no": 999,
        "meta_rev_at_epoch": 317,
        "meta_bstar": 0.00026731,
        "meta_mean_motion_dot": 5.467e-05,
        "meta_mean_motion_ddot": 0,
        "tle_line1": "1 66772U 25276DL  25353.64675389  .00005467  00000+0  26731-3 0  9999",
        "tle_line2": "2 66772  97.4448  65.3337 0002887 108.2208 251.9340 15.18627675  3172"
      },
      "geometry": {
        "type": "Point",
        "coordinates": [
          -122.61346035769739,
          -49.37290971990815
        ]
      }
    },
    {
      "type": "Feature",
      "properties": {
        "norad_id": 66773,
        "name": "TRANSPORTER-15 DM",
        "group": "last-30-days",
        "lat": -44.32701198220813,
        "lon": -121.1870197893113,
        "alt_km": 518.1951890029495,
        "timestamp": "2025-12-20T11:30:27.105771+00:00",
        "meta_object_name": "TRANSPORTER-15 DM",
        "meta_object_id": "2025-276DM",
        "meta_epoch": "2025-12-19T15:32:34.305792",
        "meta_mean_motion": 15.18487387,
        "meta_eccentricity": 0.0003023,
        "meta_inclination": 97.4442,
        "meta_ra_of_asc_node": 65.3318,
        "meta_arg_of_pericenter": 107.5089,
        "meta_mean_anomaly": 252.6476,
        "meta_ephemeris_type": 0,
        "meta_classification_type": "U",
        "meta_norad_cat_id": 66773,
        "meta_element_set_no": 999,
        "meta_rev_at_epoch": 317,
        "meta_bstar": 0.00018223,
        "meta_mean_motion_dot": 3.69e-05,
        "meta_mean_motion_ddot": 0,
        "tle_line1": "1 66773U 25276DM  25353.64761928  .00003690  00000+0  18223-3 0  9998",
        "tle_line2": "2 66773  97.4442  65.3318 0003023 107.5089 252.6476 15.18487387  3170"
      },
      "geometry": {
        "type": "Point",
        "coordinates": [
          -121.1870197893113,
          -44.32701198220813
        ]
      }
    },
    {
      "type": "Feature",
      "properties": {
        "norad_id": 66774,
        "name": "TRANSPORTER-15 DN",
        "group": "last-30-days",
        "lat": -46.536180536074056,
        "lon": -121.78051615857555,
        "alt_km": 518.1706401844258,
        "timestamp": "2025-12-20T11:30:27.105781+00:00",
        "meta_object_name": "TRANSPORTER-15 DN",
        "meta_object_id": "2025-276DN",
        "meta_epoch": "2025-12-20T02:36:14.312736",
        "meta_mean_motion": 15.18545611,
        "meta_eccentricity": 0.0002943,
        "meta_inclination": 97.4431,
        "meta_ra_of_asc_node": 65.7829,
        "meta_arg_of_pericenter": 104.9766,
        "meta_mean_anomaly": 255.1794,
        "meta_ephemeris_type": 0,
        "meta_classification_type": "U",
        "meta_norad_cat_id": 66774,
        "meta_element_set_no": 999,
        "meta_rev_at_epoch": 324,
        "meta_bstar": 0.00032231,
        "meta_mean_motion_dot": 6.591e-05,
        "meta_mean_motion_ddot": 0,
        "tle_line1": "1 66774U 25276DN  25354.10849899  .00006591  00000+0  32231-3 0  9993",
        "tle_line2": "2 66774  97.4431  65.7829 0002943 104.9766 255.1794 15.18545611  3247"
      },
      "geometry": {
        "type": "Point",
        "coordinates": [
          -121.78051615857555,
          -46.536180536074056
        ]
      }
    },
    {
      "type": "Feature",
      "properties": {
        "norad_id": 66775,
        "name": "TRANSPORTER-15 DP",
        "group": "last-30-days",
        "lat": -50.06823857416913,
        "lon": -122.84509199372232,
        "alt_km": 518.8825890931703,
        "timestamp": "2025-12-20T11:30:27.105791+00:00",
        "meta_object_name": "TRANSPORTER-15 DP",
        "meta_object_id": "2025-276DP",
        "meta_epoch": "2025-12-19T13:56:13.769088",
        "meta_mean_motion": 15.18601756,
        "meta_eccentricity": 0.0002942,
        "meta_inclination": 97.4354,
        "meta_ra_of_asc_node": 65.2468,
        "meta_arg_of_pericenter": 74.8411,
        "meta_mean_anomaly": 285.3148,
        "meta_ephemeris_type": 0,
        "meta_classification_type": "U",
        "meta_norad_cat_id": 66775,
        "meta_element_set_no": 999,
        "meta_rev_at_epoch": 316,
        "meta_bstar": 0.00021476,
        "meta_mean_motion_dot": 4.375e-05,
        "meta_mean_motion_ddot": 0,
        "tle_line1": "1 66775U 25276DP  25353.58071492  .00004375  00000+0  21476-3 0  9998",
        "tle_line2": "2 66775  97.4354  65.2468 0002942  74.8411 285.3148 15.18601756  3169"
      },
      "geometry": {
        "type": "Point",
        "coordinates": [
          -122.84509199372232,
          -50.06823857416913
        ]
      }
    },
    {
      "type": "Feature",
      "properties": {
        "norad_id": 66776,
        "name": "TRANSPORTER-15 DQ",
        "group": "last-30-days",
        "lat": -51.65753578512531,
        "lon": -123.36767088413824,
        "alt_km": 518.5262123036819,
        "timestamp": "2025-12-20T11:30:27.105801+00:00",
        "meta_object_name": "TRANSPORTER-15 DQ",
        "meta_object_id": "2025-276DQ",
        "meta_epoch": "2025-12-20T04:09:46.422144",
        "meta_mean_motion": 15.18645533,
        "meta_eccentricity": 0.0002893,
        "meta_inclination": 97.4391,
        "meta_ra_of_asc_node": 65.8398,
        "meta_arg_of_pericenter": 89.3978,
        "meta_mean_anomaly": 270.7587,
        "meta_ephemeris_type": 0,
        "meta_classification_type": "U",
        "meta_norad_cat_id": 66776,
        "meta_element_set_no": 999,
        "meta_rev_at_epoch": 325,
        "meta_bstar": 0.00028368,
        "meta_mean_motion_dot": 5.809e-05,
        "meta_mean_motion_ddot": 0,
        "tle_line1": "1 66776U 25276DQ  25354.17345396  .00005809  00000+0  28368-3 0  9992",
        "tle_line2": "2 66776  97.4391  65.8398 0002893  89.3978 270.7587 15.18645533  3259"
      },
      "geometry": {
        "type": "Point",
        "coordinates": [
          -123.36767088413824,
          -51.65753578512531
        ]
      }
    },
    {
      "type": "Feature",
      "properties": {
        "norad_id": 66777,
        "name": "TRANSPORTER-15 DR",
        "group": "last-30-days",
        "lat": -62.03536253133083,
        "lon": -128.09618515272632,
        "alt_km": 517.8250001252427,
        "timestamp": "2025-12-20T11:30:27.105813+00:00",
        "meta_object_name": "TRANSPORTER-15 DR",
        "meta_object_id": "2025-276DR",
        "meta_epoch": "2025-12-20T04:07:00.897888",
        "meta_mean_motion": 15.18855004,
        "meta_eccentricity": 0.000334,
        "meta_inclination": 97.4479,
        "meta_ra_of_asc_node": 65.865,
        "meta_arg_of_pericenter": 118.61,
        "meta_mean_anomaly": 241.5471,
        "meta_ephemeris_type": 0,
        "meta_classification_type": "U",
        "meta_norad_cat_id": 66777,
        "meta_element_set_no": 999,
        "meta_rev_at_epoch": 325,
        "meta_bstar": 0.0003669,
        "meta_mean_motion_dot": 7.581e-05,
        "meta_mean_motion_ddot": 0,
        "tle_line1": "1 66777U 25276DR  25354.17153817  .00007581  00000+0  36690-3 0  9994",
        "tle_line2": "2 66777  97.4479  65.8650 0003340 118.6100 241.5471 15.18855004  3253"
      },
      "geometry": {
        "type": "Point",
        "coordinates": [
          -128.09618515272632,
          -62.03536253133083
        ]
      }
    },
    {
      "type": "Feature",
      "properties": {
        "norad_id": 66791,
        "name": "STARLINK-35867",
        "group": "last-30-days",
        "lat": 41.23843645449741,
        "lon": -84.70693180556111,
        "alt_km": 375.02526865671825,
        "timestamp": "2025-12-20T11:30:27.105824+00:00",
        "meta_object_name": "STARLINK-35867",
        "meta_object_id": "2025-278A",
        "meta_epoch": "2025-12-20T04:00:00.999072",
        "meta_mean_motion": 15.63894345,
        "meta_eccentricity": 0.0001609,
        "meta_inclination": 42.9987,
        "meta_ra_of_asc_node": 206.9749,
        "meta_arg_of_pericenter": 274.3547,
        "meta_mean_anomaly": 198.4422,
        "meta_ephemeris_type": 0,
        "meta_classification_type": "U",
        "meta_norad_cat_id": 66791,
        "meta_element_set_no": 999,
        "meta_rev_at_epoch": 415,
        "meta_bstar": -0.023013,
        "meta_mean_motion_dot": -0.0196145,
        "meta_mean_motion_ddot": 0,
        "tle_line1": "1 66791U 25278A   25354.16667823 -.01961450  00000+0 -23013-1 0  9998",
        "tle_line2": "2 66791  42.9987 206.9749 0001609 274.3547 198.4422 15.63894345  4153"
      },
      "geometry": {
        "type": "Point",
        "coordinates": [
          -84.70693180556111,
          41.23843645449741
        ]
      }
    }
  ]
}